OBJECT_NAME,OBJECT_ID,EPOCH,MEAN_MOTION,ECCENTRICITY,INCLINATION,RA_OF_ASC_NODE,ARG_OF_PERICENTER,MEAN_ANOMALY,EPHEMERIS_TYPE,CLASSIFICATION_TYPE,NORAD_CAT_ID,ELEMENT_SET_NO,REV_AT_EPOCH,BSTAR,MEAN_MOTION_DOT,MEAN_MOTION_DDOT
SL-12 R/B(2),1985-042D,2026-06-14T15:19:29.620128,14.22005426,.0036194,71.1080,242.9009,331.6202,134.4157,0,U,15772,999,12817,.63122E-4,.93E-6,0
SL-14 R/B,1985-069B,2026-06-14T13:03:19.816704,14.86513699,.00176089,82.5268,293.8518,228.4427,131.5281,0,U,15945,999,18722,.41448457E-4,.392E-5,0
SL-16 R/B,1985-097B,2026-06-14T19:20:03.405408,14.16610593,.0005429,71.0035,296.0921,116.4084,352.7891,0,U,16182,999,10098,-.90147E-4,-.228E-5,0
SL-14 R/B,1986-006B,2026-06-14T18:19:32.783232,14.86943494,.0075097,82.5262,168.3941,311.6559,47.8243,0,U,16496,999,16363,.52034E-4,.515E-5,0
COSMOS 1743,1986-034A,2026-06-14T17:16:37.898976,15.66746830,.0003794,82.5270,331.3550,282.7220,77.3616,0,U,16719,999,19540,.42675E-3,.45054E-3,0
SL-14 R/B,1986-046B,2026-06-14T20:42:38.104128,14.85669679,.0021579,82.4816,348.3720,266.6559,93.2188,0,U,16792,999,14083,.3791E-4,.354E-5,0
SL-14 R/B,1986-055B,2026-06-14T15:38:38.804064,14.85721583,.0019296,82.5204,35.5167,15.9583,37.6683,0,U,16882,999,13376,.38804E-4,.362E-5,0
AJISAI (EGS),1986-061A,2026-06-14T19:21:50.993280,12.44516834,.0011224,50.0065,154.7145,174.5742,256.0745,0,U,16908,999,48009,-.36702E-4,-.103E-5,0
SL-14 R/B,1987-024B,2026-06-14T19:02:58.049088,14.86211725,.0016916,82.5280,1.5005,301.8625,58.0945,0,U,17567,999,10255,.34829E-4,.331E-5,0
COSMOS 1833,1987-027A,2026-06-14T15:08:08.584224,14.13048084,.0022731,70.9173,122.2418,59.3750,300.9609,0,U,17589,999,2401,.19134E-3,.31E-5,0
SL-16 R/B,1987-027B,2026-06-14T19:35:24.735264,14.17172363,.0006439,71.0033,71.8248,314.9200,45.1401,0,U,17590,999,2910,-.71199E-4,-.192E-5,0
SL-14 R/B,1987-038B,2026-06-14T13:39:35.866368,14.85443772,.0018652,82.5010,205.5383,200.0159,160.0327,0,U,17912,999,9361,.32767E-4,.307E-5,0
COSMOS 1844,1987-041A,2026-06-14T11:46:36.980256,14.14568524,.00330254,70.8973,189.9955,239.4615,120.3246,0,U,17973,999,1727,-.6224951E-4,-.169E-5,0
SL-14 R/B,1987-055B,2026-06-14T15:55:55.089120,14.85709573,.002185,82.4995,257.6077,55.5839,304.7439,0,U,18153,999,8433,.39342E-4,.367E-5,0
COSMOS 1867,1987-060A,2026-06-14T19:52:03.292896,14.31515558,.0016469,65.0116,34.6664,282.1122,77.8117,0,U,18187,999,3384,.22207E-4,-.41E-6,0
SL-14 R/B,1988-001B,2026-06-14T20:49:31.160064,14.85608149,.0016465,82.5131,103.9557,277.9704,81.9643,0,U,18749,999,5645,.3797E-4,.353E-5,0
COSMOS 1933,1988-020A,2026-06-14T11:13:46.750080,15.18696631,.00031616,82.5116,155.1277,195.8620,164.2515,0,U,18958,999,6491,.15230241E-3,.3189E-4,0
SL-3 R/B,1988-032B,2026-06-14T20:59:15.497088,15.20825693,.0023729,97.5249,148.9175,253.6649,106.1977,0,U,19046,999,6687,.16616E-3,.362E-4,0
SL-16 R/B,1988-039B,2026-06-14T20:47:08.365056,14.19629420,.0022404,71.0140,223.0663,196.6035,163.4359,0,U,19120,999,97217,-.2423E-4,-.99E-6,0
COSMOS 1953,1988-050A,2026-06-14T15:56:29.423616,15.29947162,.0011968,82.5085,60.5787,133.9399,226.2831,0,U,19210,999,5260,.25413E-3,.7414E-4,0
SL-8 R/B,1988-053B,2026-06-14T18:58:53.021280,14.38966624,.0019161,74.0479,293.4745,89.7014,23.3325,0,U,19257,999,99056,.56225E-4,.148E-5,0
COSMOS 1975,1988-093A,2026-06-14T20:44:31.435008,15.29300106,.0011106,82.5192,20.0393,179.6077,180.5174,0,U,19573,999,3425,.22735E-3,.6504E-4,0
SL-14 R/B,1988-093B,2026-06-14T20:36:12.430080,14.85740305,.0022142,82.5310,310.8311,77.6248,38.6113,0,U,19574,999,1544,.41665E-4,.388E-5,0
SL-16 R/B,1988-102B,2026-06-14T19:34:26.296032,14.16164916,.0015916,71.0001,307.1295,228.7284,131.2469,0,U,19650,999,94064,-.95073E-4,-.236E-5,0
INTERCOSMOS 24,1989-080A,2026-06-14T17:07:06.224736,12.59658242,.1188383,82.6067,41.2547,67.6401,304.6172,0,U,20261,999,67901,.23661E-3,.834E-5,0
SL-14 R/B,1989-080C,2026-06-14T20:13:03.576000,12.50569530,.1228875,82.5930,110.8141,322.7679,29.4002,0,U,20262,999,67229,.84924E-4,.284E-5,0
DELTA 1 R/B,1989-089B,2026-06-14T12:42:14.264928,14.50729903,.00690288,97.0636,357.5129,175.3448,184.8408,0,U,20323,999,90977,.81852201E-4,.297E-5,0
ARIANE 40 R/B,1990-005H,2026-06-14T14:42:08.747136,14.39926099,.0008797,98.2961,223.3086,273.2694,86.7488,0,U,20443,999,90675,.80168E-4,.21E-5,0
DELTA 2 R/B(1),1990-008B,2026-06-14T15:28:31.018080,15.68462821,.00654,35.6000,252.6629,90.2292,270.5942,0,U,20453,999,94130,.59846E-3,.79796E-3,0
COSMOS 2058,1990-010A,2026-06-14T19:39:39.481344,15.11998662,.000949,82.4672,311.6897,9.3557,350.7849,0,U,20465,999,95691,.21974E-3,.3803E-4,0
SL-14 R/B,1990-010B,2026-06-14T17:45:28.809792,14.83644790,.0019301,82.5016,176.2432,344.5819,15.4805,0,U,20466,999,94287,.35776E-4,.32E-5,0
