SL-12 R/B(2)            
1 15772U 85042D   26165.63853727  .00000093  00000+0  63122-4 0  9991
2 15772  71.1080 242.9009 0036194 331.6202 134.4157 14.22005426128177
SL-14 R/B               
1 15945U 85069B   26165.54397936  .00000392  00000+0  41448-4 0  9996
2 15945  82.5268 293.8518 0017608 228.4427 131.5281 14.86513699187227
SL-16 R/B               
1 16182U 85097B   26165.80559497 -.00000228  00000+0 -90147-4 0  9992
2 16182  71.0035 296.0921 0005429 116.4084 352.7891 14.16610593100988
SL-14 R/B               
1 16496U 86006B   26165.76357388  .00000515  00000+0  52034-4 0  9991
2 16496  82.5262 168.3941 0075097 311.6559  47.8243 14.86943494163632
COSMOS 1743             
1 16719U 86034A   26165.71988309  .00045054  00000+0  42675-3 0  9994
2 16719  82.5270 331.3550 0003794 282.7220  77.3616 15.66746830195401
SL-14 R/B               
1 16792U 86046B   26165.86294102  .00000354  00000+0  37910-4 0  9996
2 16792  82.4816 348.3720 0021579 266.6559  93.2188 14.85669679140834
SL-14 R/B               
1 16882U 86055B   26165.65183801  .00000362  00000+0  38804-4 0  9998
2 16882  82.5204  35.5167 0019296  15.9583  37.6683 14.85721583133760
AJISAI (EGS)            
1 16908U 86061A   26165.80684020 -.00000103  00000+0 -36702-4 0  9990
2 16908  50.0065 154.7145 0011224 174.5742 256.0745 12.44516834480097
SL-14 R/B               
1 17567U 87024B   26165.79372742  .00000331  00000+0  34829-4 0  9994
2 17567  82.5280   1.5005 0016916 301.8625  58.0945 14.86211725102553
COSMOS 1833             
1 17589U 87027A   26165.63065491  .00000310  00000+0  19134-3 0  9992
2 17589  70.9173 122.2418 0022731  59.3750 300.9609 14.13048084 24010
SL-16 R/B               
1 17590U 87027B   26165.81625851 -.00000192  00000+0 -71199-4 0  9996
2 17590  71.0033  71.8248 0006439 314.9200  45.1401 14.17172363 29101
SL-14 R/B               
1 17912U 87038B   26165.56916512  .00000307  00000+0  32767-4 0  9999
2 17912  82.5010 205.5383 0018652 200.0159 160.0327 14.85443772 93616
COSMOS 1844             
1 17973U 87041A   26165.49070579 -.00000169  00000+0 -62250-4 0  9994
2 17973  70.8973 189.9955 0033025 239.4615 120.3246 14.14568524 17277
SL-14 R/B               
1 18153U 87055B   26165.66383205  .00000367  00000+0  39342-4 0  9996
2 18153  82.4995 257.6077 0021850  55.5839 304.7439 14.85709573 84339
COSMOS 1867             
1 18187U 87060A   26165.82781589 -.00000041  00000+0  22207-4 0  9996
2 18187  65.0116  34.6664 0016469 282.1122  77.8117 14.31515558 33846
SL-14 R/B               
1 18749U 88001B   26165.86772176  .00000353  00000+0  37970-4 0  9990
2 18749  82.5131 103.9557 0016465 277.9704  81.9643 14.85608149 56456
COSMOS 1933             
1 18958U 88020A   26165.46790220  .00003189  00000+0  15230-3 0  9993
2 18958  82.5116 155.1277 0003161 195.8620 164.2515 15.18696631 64916
SL-3 R/B                
1 19046U 88032B   26165.87448492  .00003620  00000+0  16616-3 0  9990
2 19046  97.5249 148.9175 0023729 253.6649 106.1977 15.20825693 66870
SL-16 R/B               
1 19120U 88039B   26165.86606904 -.00000099  00000+0 -24230-4 0  9994
2 19120  71.0140 223.0663 0022404 196.6035 163.4359 14.19629420972177
COSMOS 1953             
1 19210U 88050A   26165.66422944  .00007414  00000+0  25413-3 0  9994
2 19210  82.5085  60.5787 0011968 133.9399 226.2831 15.29947162 52601
SL-8 R/B                
1 19257U 88053B   26165.79089145  .00000148  00000+0  56225-4 0  9997
2 19257  74.0479 293.4745 0019161  89.7014  23.3325 14.38966624990564
COSMOS 1975             
1 19573U 88093A   26165.86425272  .00006504  00000+0  22735-3 0  9995
2 19573  82.5192  20.0393 0011106 179.6077 180.5174 15.29300106 34254
SL-14 R/B               
1 19574U 88093B   26165.85847720  .00000388  00000+0  41665-4 0  9999
2 19574  82.5310 310.8311 0022142  77.6248  38.6113 14.85740305 15442
SL-16 R/B               
1 19650U 88102B   26165.81558213 -.00000236  00000+0 -95073-4 0  9993
2 19650  71.0001 307.1295 0015916 228.7284 131.2469 14.16164916940642
INTERCOSMOS 24          
1 20261U 89080A   26165.71326649  .00000834  00000+0  23661-3 0  9999
2 20261  82.6067  41.2547 1188383  67.6401 304.6172 12.59658242679011
SL-14 R/B               
1 20262U 89080C   26165.84240250  .00000284  00000+0  84924-4 0  9996
2 20262  82.5930 110.8141 1228875 322.7679  29.4002 12.50569530672295
DELTA 1 R/B             
1 20323U 89089B   26165.52933177  .00000297  00000+0  81852-4 0  9996
2 20323  97.0636 357.5129 0069028 175.3448 184.8408 14.50729903909777
ARIANE 40 R/B           
1 20443U 90005H   26165.61260124  .00000210  00000+0  80168-4 0  9998
2 20443  98.2961 223.3086 0008797 273.2694  86.7488 14.39926099906758
DELTA 2 R/B(1)          
1 20453U 90008B   26165.64480345  .00079796  00000+0  59846-3 0  9997
2 20453  35.6000 252.6629 0065400  90.2292 270.5942 15.68462821941300
COSMOS 2058             
1 20465U 90010A   26165.81920696  .00003803  00000+0  21974-3 0  9997
2 20465  82.4672 311.6897 0009490   9.3557 350.7849 15.11998662956918
SL-14 R/B               
1 20466U 90010B   26165.73991678  .00000320  00000+0  35776-4 0  9994
2 20466  82.5016 176.2432 0019301 344.5819  15.4805 14.83644790942874
